*******************************************************************************
JPL/HORIZONS                100 Hekate (A868 NA)           2020-Jun-20 08:13:42
Rec #:     100 (+COV) Soln.date: 2020-May-20_00:58:15   # obs: 2850 (1871-2020)
 
IAU76/J2000 helio. ecliptic osc. elements (au, days, deg., period=Julian yrs):
 
  EPOCH=  2455530.5 ! 2010-Nov-30.00 (TDB)         Residual RMS= .32892
   EC= .167409993622494    QR= 2.576640034501836   TP= 2455266.9085862651
   OM= 127.2953703283963   W=  185.8015709080599   IN= 6.426713217331383
   A= 3.094728515554098    MA= 47.72011683873674   ADIST= 3.612816996606359
   PER= 5.4443             N= .181038202           ANGMOM= .029834586
   DAN= 3.6091             DDN= 2.57853            L= 313.0607396
   B= -.6482882            MOID= 1.56220996        TP= 2010-Mar-11.4085862651
 
Asteroid physical parameters (km, seconds, rotational period in hours):
   GM= n.a.                RAD= 42.867             ROTPER= 27.066
   H= 7.6                  G= .150                 B-V= .838
                           ALBEDO= .205            STYP= S
 
ASTEROID comments: 
1: soln ref.= JPL#37, OCC=0
2: source=ORB
*******************************************************************************
 
 
*******************************************************************************
Ephemeris / WWW_USER Sat Jun 20 08:13:42 2020 Pasadena, USA      / Horizons
*******************************************************************************
Target body name: 100 Hekate (A868 NA)            {source: JPL#37}
Center body name: Solar System Barycenter (0)     {source: DE431}
Center-site name: BODY CENTER
*******************************************************************************
Start time      : A.D. 1969-Jun-28 00:00:00.0000 TDB
Stop  time      : A.D. 2071-May-04 00:00:00.0000 TDB
Step-size       : 7200 minutes
*******************************************************************************
Center geodetic : 0.00000000,0.00000000,0.0000000 {E-lon(deg),Lat(deg),Alt(km)}
Center cylindric: 0.00000000,0.00000000,0.0000000 {E-lon(deg),Dxy(km),Dz(km)}
Center radii    : (undefined)                                                  
Small perturbers: Yes                             {source: SB431-N16}
Output units    : AU-D
Output type     : GEOMETRIC cartesian states
Output format   : 2 (position and velocity)
Reference frame : Ecliptic of J2000.0
*******************************************************************************
Initial IAU76/J2000 heliocentric ecliptic osculating elements (au, days, deg.):
  EPOCH=  2455530.5 ! 2010-Nov-30.00 (TDB)         Residual RMS= .32892        
   EC= .167409993622494    QR= 2.576640034501836   TP= 2455266.9085862651      
   OM= 127.2953703283963   W=  185.8015709080599   IN= 6.426713217331383       
  Equivalent ICRF heliocentric equatorial cartesian coordinates (au, au/d):
   X= 2.665383866555962E+00  Y= 8.635976541780942E-01  Z= 5.356851702984744E-02
  VX=-1.728161482403702E-03 VY= 9.947209312207186E-03 VZ= 3.693232030587194E-03
Asteroid physical parameters (km, seconds, rotational period in hours):        
   GM= n.a.                RAD= 42.867             ROTPER= 27.066              
   H= 7.6                  G= .150                 B-V= .838                   
                           ALBEDO= .205            STYP= S                     
*******************************************************************************
            JDTDB,            Calendar Date (TDB),        delta-T,                      X,                      Y,                      Z,                     VX,                     VY,                     VZ,
******************************************************************************************************************************************************************************************************************
$$SOE
2447820.500000000, A.D. 1989-Oct-21 00:00:00.0000,      56.182421,  1.356673112044524E+00,  2.925346764451562E+00, -3.210501867013093E-01, -7.760300289784336E-03,  5.175647629030319E-03,  3.307572368413031E-04,
2447825.500000000, A.D. 1989-Oct-26 00:00:00.0000,      56.182466,  1.317725504710492E+00,  2.950907300952096E+00, -3.193615875562406E-01, -7.818399879569799E-03,  5.048518220931940E-03,  3.446555413691550E-04,
2447830.500000000, A.D. 1989-Oct-31 00:00:00.0000,      56.182523,  1.278492528623934E+00,  2.975831483408131E+00, -3.176039006688962E-01, -7.874450249214245E-03,  4.921110837752708E-03,  3.583922191652954E-04,
2447835.500000000, A.D. 1989-Nov-05 00:00:00.0000,      56.182591,  1.238984392890818E+00,  3.000117993759797E+00, -3.157779358415024E-01, -7.928466219689314E-03,  4.793454089706523E-03,  3.719666127614644E-04,
2447840.500000000, A.D. 1989-Nov-10 00:00:00.0000,      56.182668,  1.199211232181183E+00,  3.023765655269798E+00, -3.138845060163863E-01, -7.980462741406893E-03,  4.665575897912759E-03,  3.853781231596669E-04,
2447845.500000000, A.D. 1989-Nov-15 00:00:00.0000,      56.182754,  1.159183106126080E+00,  3.046773429112575E+00, -3.119244269899572E-01, -8.030454876696236E-03,  4.537503508265307E-03,  3.986262073102218E-04,
2447850.500000000, A.D. 1989-Nov-20 00:00:00.0000,      56.182850,  1.118909998800139E+00,  3.069140411032979E+00, -3.098985171391231E-01, -8.078457783071851E-03,  4.409263505356159E-03,  4.117103756609162E-04,
2447855.500000000, A.D. 1989-Nov-25 00:00:00.0000,      56.182957,  1.078401818285899E+00,  3.090865828074601E+00, -3.078075971597850E-01, -8.124486697253840E-03,  4.280881826410048E-03,  4.246301897760584E-04,
2447860.500000000, A.D. 1989-Nov-30 00:00:00.0000,      56.183073,  1.037668396316205E+00,  3.111949035377697E+00, -3.056524898170564E-01, -8.168556919917580E-03,  4.152383775179620E-03,  4.373852600271191E-04,
2447865.500000000, A.D. 1989-Dec-05 00:00:00.0000,      56.183195,  9.967194879910704E-01,  3.132389513046395E+00, -3.034340197068480E-01, -8.210683801156369E-03,  4.023794035748825E-03,  4.499752433578234E-04,
2447870.500000000, A.D. 1989-Dec-10 00:00:00.0000,      56.183322,  9.555647715654525E-01,  3.152186863084560E+00, -3.011530130284298E-01, -8.250882726654800E-03,  3.895136686191544E-03,  4.623998411287850E-04,
2447875.500000000, A.D. 1989-Dec-15 00:00:00.0000,      56.183454,  9.142138483043590E-01,  3.171340806399510E+00, -2.988102973675568E-01, -8.289169104585943E-03,  3.766435212045359E-03,  4.746587970470226E-04,
2447880.500000000, A.D. 1989-Dec-20 00:00:00.0000,      56.183590,  8.726762424016006E-01,  3.189851179872617E+00, -2.964067014897317E-01, -8.325558353262017E-03,  3.637712519590959E-03,  4.867518951838860E-04,
2447885.500000000, A.D. 1989-Dec-25 00:00:00.0000,      56.183732,  8.309614009583401E-01,  3.207717933495907E+00, -2.939430551431635E-01, -8.360065889569451E-03,  3.508990948996714E-03,  4.986789580743088E-04,
2447890.500000000, A.D. 1989-Dec-30 00:00:00.0000,      56.183876,  7.890786940175404E-01,  3.224941127574321E+00, -2.914201888710801E-01, -8.392707118152676E-03,  3.380292287455956E-03,  5.104398448696596E-04,
2447895.500000000, A.D. 1990-Jan-04 00:00:00.0000,      57.184020,  7.470374146509093E-01,  3.241520929993840E+00, -2.888389338332221E-01, -8.423497421207496E-03,  3.251637782388572E-03,  5.220344495111678E-04,
2447900.500000000, A.D. 1990-Jan-09 00:00:00.0000,      57.184163,  7.048467790956577E-01,  3.257457613555358E+00, -2.862001216363806E-01, -8.452452148771388E-03,  3.123048154477955E-03,  5.334626989494947E-04,
2447905.500000000, A.D. 1990-Jan-14 00:00:00.0000,      57.184303,  6.625159269380897E-01,  3.272751553372763E+00, -2.835045841735410E-01, -8.479586609755492E-03,  2.994543610346501E-03,  5.447245514912492E-04,
2447910.500000000, A.D. 1990-Jan-19 00:00:00.0000,      57.184442,  6.200539213398035E-01,  3.287403224334650E+00, -2.807531534710916E-01, -8.504916063816847E-03,  2.866143855452805E-03,  5.558199951952536E-04,
2447915.500000000, A.D. 1990-Jan-24 00:00:00.0000,      57.184579,  5.774697493035379E-01,  3.301413198631838E+00, -2.779466615442253E-01, -8.528455713547855E-03,  2.737868107476302E-03,  5.667490461962294E-04,
2447920.500000000, A.D. 1990-Jan-29 00:00:00.0000,      57.184712,  5.347723219778167E-01,  3.314782143352069E+00, -2.750859402608196E-01, -8.550220696776184E-03,  2.609735109717850E-03,  5.775117470074794E-04,
2447925.500000000, A.D. 1990-Feb-03 00:00:00.0000,      57.184840,  4.919704749994614E-01,  3.327510818140980E+00, -2.721718212136616E-01, -8.570226079152029E-03,  2.481763144187851E-03,  5.881081648847692E-04,
2447930.500000000, A.D. 1990-Feb-08 00:00:00.0000,      57.184958,  4.490729688721719E-01,  3.339600072927713E+00, -2.692051356006692E-01, -8.588486847142212E-03,  2.353970044384354E-03,  5.985383902666190E-04,
2447935.500000000, A.D. 1990-Feb-13 00:00:00.0000,      57.185069,  4.060884893790642E-01,  3.351050845713740E+00, -2.661867141127284E-01, -8.605017901451840E-03,  2.226373207807134E-03,  6.088025352839205E-04,
2447940.500000000, A.D. 1990-Feb-18 00:00:00.0000,      57.185173,  3.630256480270516E-01,  3.361864160423646E+00, -2.631173868288261E-01, -8.619834050865315E-03,  2.098989608225099E-03,  6.189007323330557E-04,
2447945.500000000, A.D. 1990-Feb-23 00:00:00.0000,      57.185269,  3.198929825209865E-01,  3.372041124816641E+00, -2.599979831181632E-01, -8.632950006498212E-03,  1.971835807703889E-03,  6.288331327089568E-04,
2447950.500000000, A.D. 1990-Feb-28 00:00:00.0000,      57.185356,  2.766989572655374E-01,  3.381582928457616E+00, -2.568293315489594E-01, -8.644380376449982E-03,  1.844927968397248E-03,  6.385999052957217E-04,
2447955.500000000, A.D. 1990-Mar-05 00:00:00.0000,      57.185432,  2.334519638928235E-01,  3.390490840746584E+00, -2.536122598036641E-01, -8.654139660846298E-03,  1.718281864106775E-03,  6.482012353120463E-04,
